[{"OBJECT_NAME":"TEVEL2-5","OBJECT_ID":"2025-052E","EPOCH":"2026-03-09T23:11:54.246048","MEAN_MOTION":15.30817434,"ECCENTRICITY":0.00047002,"INCLINATION":97.4013,"RA_OF_ASC_NODE":325.3677,"ARG_OF_PERICENTER":95.3936,"MEAN_ANOMALY":264.7842,"EPHEMERIS_TYPE":0,"CLASSIFICATION_TYPE":"U","NORAD_CAT_ID":63214,"ELEMENT_SET_NO":999,"REV_AT_EPOCH":5491,"BSTAR":0.00071764727,"MEAN_MOTION_DOT":0.00021339,"MEAN_MOTION_DDOT":0},{"OBJECT_NAME":"STARLINK-35580","OBJECT_ID":"2025-240K","EPOCH":"2026-03-09T06:07:17.060448","MEAN_MOTION":15.3019797,"ECCENTRICITY":0.00012036,"INCLINATION":53.1604,"RA_OF_ASC_NODE":64.7055,"ARG_OF_PERICENTER":80.4775,"MEAN_ANOMALY":279.6362,"EPHEMERIS_TYPE":0,"CLASSIFICATION_TYPE":"U","NORAD_CAT_ID":66155,"ELEMENT_SET_NO":999,"REV_AT_EPOCH":2192,"BSTAR":0.00072656172,"MEAN_MOTION_DOT":0.0002122,"MEAN_MOTION_DDOT":0}]
